TISAT 1                 
1 36799U 10035E   26068.75703561  .00024554  00000+0  91005-3 0  9996
2 36799  98.0645   6.8512 0001343 159.3030 200.8262 15.27628633852505
STARLINK-30312          
1 57641U 23122K   26068.43991047  .00001626  00000+0  70282-4 0  9999
2 57641  43.0030  93.4926 0001693 243.6138 116.4539 15.26737903142171
