[{"OBJECT_NAME":"TISAT 1","OBJECT_ID":"2010-035E","EPOCH":"2026-03-09T18:10:07.877568","MEAN_MOTION":15.27628633,"ECCENTRICITY":0.00013432,"INCLINATION":98.0645,"RA_OF_ASC_NODE":6.8512,"ARG_OF_PERICENTER":159.303,"MEAN_ANOMALY":200.8262,"EPHEMERIS_TYPE":0,"CLASSIFICATION_TYPE":"U","NORAD_CAT_ID":36799,"ELEMENT_SET_NO":999,"REV_AT_EPOCH":85250,"BSTAR":0.00091004793,"MEAN_MOTION_DOT":0.00024554,"MEAN_MOTION_DDOT":0},{"OBJECT_NAME":"STARLINK-30312","OBJECT_ID":"2023-122K","EPOCH":"2026-03-09T10:33:28.264608","MEAN_MOTION":15.26737903,"ECCENTRICITY":0.00016931,"INCLINATION":43.003,"RA_OF_ASC_NODE":93.4926,"ARG_OF_PERICENTER":243.6138,"MEAN_ANOMALY":116.4539,"EPHEMERIS_TYPE":0,"CLASSIFICATION_TYPE":"U","NORAD_CAT_ID":57641,"ELEMENT_SET_NO":999,"REV_AT_EPOCH":14217,"BSTAR":7.0281586e-5,"MEAN_MOTION_DOT":1.626e-5,"MEAN_MOTION_DDOT":0}]
